NORAD_CAT_ID,OBJECT_NAME,OBJECT_TYPE,EPOCH,MEAN_MOTION,ECCENTRICITY,INCLINATION,RA_OF_ASC_NODE,ARG_OF_PERICENTER,MEAN_ANOMALY,BSTAR,MEAN_MOTION_DOT,MEAN_MOTION_DDOT,TLE_LINE0,TLE_LINE1,TLE_LINE2,SEMIMAJOR_AXIS,PERIOD,APOGEE,PERIGEE,DECAYED
55655.0,STARLINK-5267,PAYLOAD,2023-09-27 01:14:24,14.98319051,0.0002474,69.9995,260.2638,263.2051,96.8827,3.9215e-05,3.75e-06,0.0,0 STARLINK-5267,1 55655U 23021AD  23270.05167165  .00000375  00000-0  39215-4 0  9998,2 55655  69.9995 260.2638 0002474 263.2051  96.8827 14.98319051 34972,6950.227,96.108,573.811,570.372,0.0
55655.0,STARLINK-5267,PAYLOAD,2023-09-27 09:15:05,14.98321413,0.0002673,69.9996,259.4237,267.9136,92.1717,-5.6389e-05,-7.66e-06,0.0,0 STARLINK-5267,1 55655U 23021AD  23270.38547486 -.00000766  00000-0 -56389-4 0  9999,2 55655  69.9996 259.4237 0002673 267.9136  92.1717 14.98321413 35326,6950.219,96.108,573.942,570.227,0.0
55655.0,STARLINK-5267,PAYLOAD,2023-09-28 02:52:33,14.98330041,0.0002871,69.9991,257.5719,267.3979,92.6852,-3.8188e-05,-5.49e-06,0.0,0 STARLINK-5267,1 55655U 23021AD  23271.11982991 -.00000549  00000-0 -38188-4 0  9991,2 55655  69.9991 257.5719 0002871 267.3979  92.6852 14.98330041 35135,6950.193,96.107,574.053,570.062,0.0
55655.0,STARLINK-5267,PAYLOAD,2023-09-28 09:17:05,14.98330202,0.0002704,69.9996,256.8991,265.1161,94.9689,2.8045e-05,2.42e-06,0.0,0 STARLINK-5267,1 55655U 23021AD  23271.38686803  .00000242  00000-0  28045-4 0  9992,2 55655  69.9996 256.8991 0002704 265.1161  94.9689 14.98330202 35477,6950.192,96.107,573.937,570.178,0.0
55655.0,STARLINK-5267,PAYLOAD,2023-09-29 09:19:06,14.98327921,0.000278,69.9995,254.3734,268.2721,91.8119,8.4943e-05,9.21e-06,0.0,0 STARLINK-5267,1 55655U 23021AD  23272.38826902  .00000921  00000-0  84943-4 0  9992,2 55655  69.9995 254.3734 0002780 268.2721  91.8119 14.98327921 35326,6950.199,96.107,573.996,570.132,0.0
55655.0,STARLINK-5267,PAYLOAD,2023-09-30 02:56:34,14.98336653,0.0002707,69.9996,252.5219,266.4835,93.6015,6.2096e-05,6.48e-06,0.0,0 STARLINK-5267,1 55655U 23021AD  23273.12262271  .00000648  00000-0  62096-4 0  9999,2 55655  69.9996 252.5219 0002707 266.4835  93.6015 14.98336653 35439,6950.172,96.107,573.919,570.156,0.0
55655.0,STARLINK-5267,PAYLOAD,2023-09-30 04:32:42,14.983369,0.0002697,69.9997,252.3536,266.7062,93.3789,6.4697e-05,6.79e-06,0.0,0 STARLINK-5267,1 55655U 23021AD  23273.18938221  .00000679  00000-0  64697-4 0  9993,2 55655  69.9997 252.3536 0002697 266.7062  93.3789 14.98336900 35747,6950.172,96.107,573.911,570.162,0.0
55655.0,STARLINK-5267,PAYLOAD,2023-09-30 15:45:39,14.98333109,0.0001958,70.0017,251.1745,278.5562,81.5375,-2.924e-05,-4.42e-06,0.0,0 STARLINK-5267,1 55655U 23021AD  23273.65670795 -.00000442  00000-0 -29240-4 0  9999,2 55655  70.0017 251.1745 0001958 278.5562  81.5375 14.98333109 35510,6950.183,96.107,573.409,570.687,0.0
55655.0,STARLINK-5267,PAYLOAD,2023-10-01 07:47:00,14.98330868,0.0002623,69.9997,249.4933,264.6152,95.4708,-7.7852e-05,-1.022e-05,0.0,0 STARLINK-5267,1 55655U 23021AD  23274.32430843 -.00001022  00000-0 -77852-4 0  9999,2 55655  69.9997 249.4933 0002623 264.6152  95.4708 14.98330868 35911,6950.19,96.107,573.878,570.232,0.0
55655.0,STARLINK-5267,PAYLOAD,2023-10-01 15:47:40,14.98327001,0.00024,70.0005,248.6497,270.5206,89.5678,-5.9983e-05,-8.08e-06,0.0,0 STARLINK-5267,1 55655U 23021AD  23274.65811079 -.00000808  00000-0 -59983-4 0  9995,2 55655  70.0005 248.6497 0002400 270.5206  89.5678 14.98327001 35666,6950.202,96.107,573.735,570.399,0.0
55655.0,STARLINK-5267,PAYLOAD,2023-10-02 07:49:01,14.98334253,0.0002587,69.9995,246.9677,262.6672,97.4193,-0.00014318,-1.801e-05,0.0,0 STARLINK-5267,1 55655U 23021AD  23275.32570743 -.00001801  00000-0 -14318-3 0  9996,2 55655  69.9995 246.9677 0002587 262.6672  97.4193 14.98334253 35765,6950.18,96.107,573.843,570.247,0.0
55655.0,STARLINK-5267,PAYLOAD,2023-10-02 15:49:41,14.98327688,0.0002831,69.9992,246.1251,263.0478,97.0359,1.1012e-05,3.8e-07,0.0,0 STARLINK-5267,1 55655U 23021AD  23275.65950705  .00000038  00000-0  11012-4 0  9990,2 55655  69.9992 246.1251 0002831 263.0478  97.0359 14.98327688 36117,6950.2,96.107,574.033,570.097,0.0
55655.0,STARLINK-5267,PAYLOAD,2023-10-03 07:51:01,14.98335336,0.0002844,69.9991,244.442,267.6566,92.4268,9.6756e-05,1.062e-05,0.0,0 STARLINK-5267,1 55655U 23021AD  23276.32709983  .00001062  00000-0  96756-4 0  9991,2 55655  69.9991 244.4420 0002844 267.6566  92.4268 14.98335336 35911,6950.176,96.107,574.018,570.065,0.0
55655.0,STARLINK-5267,PAYLOAD,2023-10-03 15:51:42,14.98328074,0.0002788,69.9993,243.5999,267.886,92.198,1.9895e-05,1.44e-06,0.0,0 STARLINK-5267,1 55655U 23021AD  23276.66090619  .00000144  00000-0  19895-4 0  9996,2 55655  69.9993 243.5999 0002788 267.8860  92.1980 14.98328074 35964,6950.199,96.107,574.002,570.126,0.0
55655.0,STARLINK-5267,PAYLOAD,2023-10-04 07:53:03,14.98323591,0.0002727,69.9995,241.9169,267.1433,92.9414,0.00014296,1.613e-05,0.0,0 STARLINK-5267,1 55655U 23021AD  23277.32850738  .00001613  00000-0  14296-3 0  9997,2 55655  69.9995 241.9169 0002727 267.1433  92.9414 14.98323591 36363,6950.213,96.107,573.973,570.182,0.0
55655.0,STARLINK-5267,PAYLOAD,2023-10-04 22:18:15,14.98330979,0.0002727,70.0,240.4024,269.3734,90.7113,-1.0994e-05,-2.24e-06,0.0,0 STARLINK-5267,1 55655U 23021AD  23277.92934651 -.00000224  00000-0 -10994-4 0  9991,2 55655  70.0000 240.4024 0002727 269.3734  90.7113 14.98330979 36455,6950.19,96.107,573.95,570.16,0.0
55655.0,STARLINK-5267,PAYLOAD,2023-10-05 03:06:39,14.98332469,0.0002668,70.0002,239.8974,270.6757,89.4097,-5.841e-06,-1.63e-06,0.0,0 STARLINK-5267,1 55655U 23021AD  23278.12962537 -.00000163  00000-0 -58410-5 0  9996,2 55655  70.0002 239.8974 0002668 270.6757  89.4097 14.98332469 36189,6950.185,96.107,573.905,570.196,0.0
55655.0,STARLINK-5267,PAYLOAD,2023-10-05 07:55:03,14.98337996,0.0002609,70.0004,239.3925,268.8302,91.2559,7.4777e-05,8e-06,0.0,0 STARLINK-5267,1 55655U 23021AD  23278.32989894  .00000800  00000-0  74777-4 0  9992,2 55655  70.0004 239.3925 0002609 268.8302  91.2559 14.98337996 36210,6950.168,96.106,573.846,570.22,0.0
55655.0,STARLINK-5267,PAYLOAD,2023-10-05 14:19:35,14.98361564,0.0002721,70.0004,238.719,273.1782,86.9065,-0.00045985,-5.58e-05,0.0,0 STARLINK-5267,1 55655U 23021AD  23278.59693441 -.00005580  00000-0 -45985-3 0  9991,2 55655  70.0004 238.7190 0002721 273.1782  86.9065 14.98361564 36258,6950.095,96.105,573.851,570.069,0.0
55655.0,STARLINK-5267,PAYLOAD,2023-10-06 03:08:40,14.98322366,0.0002812,70.001,237.3735,267.5497,92.534,7.6682e-05,8.22e-06,0.0,0 STARLINK-5267,1 55655U 23021AD  23279.13102696  .00000822  00000-0  76682-4 0  9990,2 55655  70.0010 237.3735 0002812 267.5497  92.5340 14.98322366 36331,6950.216,96.107,574.036,570.127,0.0
55655.0,STARLINK-5267,PAYLOAD,2023-10-06 07:57:04,14.98327821,0.0002897,70.0012,236.8687,267.3019,92.7809,-4.9541e-07,-9.9e-07,0.0,0 STARLINK-5267,1 55655U 23021AD  23279.33130594 -.00000099  00000-0 -49541-6 0  9994,2 55655  70.0012 236.8687 0002897 267.3019  92.7809 14.98327821 36663,6950.2,96.107,574.078,570.051,0.0
55655.0,STARLINK-5267,PAYLOAD,2023-10-06 14:21:37,14.98326581,0.0002545,70.0011,236.1948,271.6582,88.4285,-3.1401e-05,-4.68e-06,0.0,0 STARLINK-5267,1 55655U 23021AD  23279.59834855 -.00000468  00000-0 -31401-4 0  9997,2 55655  70.0011 236.1948 0002545 271.6582  88.4285 14.98326581 36705,6950.203,96.107,573.837,570.3,0.0
55655.0,STARLINK-5267,PAYLOAD,2023-10-07 01:34:33,14.98327559,0.0002762,70.0001,235.016,269.6004,90.4838,-5.7686e-05,-7.81e-06,0.0,0 STARLINK-5267,1 55655U 23021AD  23280.06566841 -.00000781  00000-0 -57686-4 0  9999,2 55655  70.0001 235.0160 0002762 269.6004  90.4838 14.98327559 36775,6950.2,96.107,573.985,570.146,0.0
55655.0,STARLINK-5267,PAYLOAD,2023-10-07 14:23:37,14.98334758,0.0002791,70.0002,233.6709,267.4304,92.6536,-7.2396e-05,-9.57e-06,0.0,0 STARLINK-5267,1 55655U 23021AD  23280.59974324 -.00000957  00000-0 -72396-4 0  9996,2 55655  70.0002 233.6709 0002791 267.4304  92.6536 14.98334758 36554,6950.178,96.107,573.983,570.103,0.0
55655.0,STARLINK-5267,PAYLOAD,2023-10-07 22:24:18,14.98322786,0.0002929,70.0003,232.8295,269.3356,90.7467,3.3191e-05,3.03e-06,0.0,0 STARLINK-5267,1 55655U 23021AD  23280.93354803  .00000303  00000-0  33191-4 0  9991,2 55655  70.0003 232.8295 0002929 269.3356  90.7467 14.98322786 36906,6950.215,96.107,574.116,570.044,0.0
55655.0,STARLINK-5267,PAYLOAD,2023-10-08 03:12:42,14.98325313,0.0002701,70.0007,232.3232,266.3874,93.6976,1.3343e-05,6.6e-07,0.0,0 STARLINK-5267,1 55655U 23021AD  23281.13382769  .00000066  00000-0  13343-4 0  9999,2 55655  70.0007 232.3232 0002701 266.3874  93.6976 14.98325313 36632,6950.207,96.107,573.95,570.195,0.0
55655.0,STARLINK-5267,PAYLOAD,2023-10-08 06:24:58,14.98327178,0.0002549,70.0011,231.9858,263.5103,96.5766,9.8059e-05,1.077e-05,0.0,0 STARLINK-5267,1 55655U 23021AD  23281.26734446  .00001077  00000-0  98059-4 0  9996,2 55655  70.0011 231.9858 0002549 263.5103  96.5766 14.98327178 36955,6950.202,96.107,573.838,570.295,0.0
55655.0,STARLINK-5267,PAYLOAD,2023-10-08 20:50:10,14.98330835,0.0002887,70.0002,230.4725,268.4936,91.5893,7.2835e-05,7.76e-06,0.0,0 STARLINK-5267,1 55655U 23021AD  23281.86818156  .00000776  00000-0  72835-4 0  9992,2 55655  70.0002 230.4725 0002887 268.4936  91.5893 14.98330835 37046,6950.19,96.107,574.062,570.049,0.0
55655.0,STARLINK-5267,PAYLOAD,2023-10-09 03:14:42,14.98335073,0.0002776,70.0003,229.7979,265.974,94.1102,6.9357e-05,7.35e-06,0.0,0 STARLINK-5267,1 55655U 23021AD  23282.13521840  .00000735  00000-0  69357-4 0  9994,2 55655  70.0003 229.7979 0002776 265.9740  94.1102 14.98335073 36782,6950.177,96.107,573.972,570.113,0.0
55655.0,STARLINK-5267,PAYLOAD,2023-10-09 06:26:58,14.98340167,0.0002809,70.0006,229.4619,265.9712,94.1126,0.00012164,1.359e-05,0.0,0 STARLINK-5267,1 55655U 23021AD  23282.26873282  .00001359  00000-0  12164-3 0  9994,2 55655  70.0006 229.4619 0002809 265.9712  94.1126 14.98340167 37102,6950.161,96.106,573.979,570.074,0.0
